{
    "links": {
        "self": "http://www.neowsapp.com/rest/v1/neo/3843721?api_key=iIulBulltgU6a56xZRHN4H3l9WmuAYTsLGpBGhQ2"
    },
    "id": "3843721",
    "neo_reference_id": "3843721",
    "name": "(2019 QF7)",
    "designation": "2019 QF7",
    "nasa_jpl_url": "http://ssd.jpl.nasa.gov/sbdb.cgi?sstr=3843721",
    "absolute_magnitude_h": 21.9,
    "estimated_diameter": {
        "kilometers": {
            "estimated_diameter_min": 0.1108038821,
            "estimated_diameter_max": 0.2477650126
        },
        "meters": {
            "estimated_diameter_min": 110.8038821264,
            "estimated_diameter_max": 247.7650126055
        },
        "miles": {
            "estimated_diameter_min": 0.068850319,
            "estimated_diameter_max": 0.1539539936
        },
        "feet": {
            "estimated_diameter_min": 363.5298086356,
            "estimated_diameter_max": 812.8773639568
        }
    },
    "is_potentially_hazardous_asteroid": false,
    "close_approach_data": [
        {
            "close_approach_date": "2019-08-16",
            "close_approach_date_full": "2019-Aug-16 07:15",
            "epoch_date_close_approach": 1565939700000,
            "relative_velocity": {
                "kilometers_per_second": "22.7643084899",
                "kilometers_per_hour": "81951.5105636512",
                "miles_per_hour": "50921.4816610642"
            },
            "miss_distance": {
                "astronomical": "0.2944331334",
                "lunar": "114.5344888926",
                "kilometers": "44046569.614065858",
                "miles": "27369269.2283025204"
            },
            "orbiting_body": "Earth"
        }
    ],
    "orbital_data": {
        "orbit_id": "2",
        "orbit_determination_date": "2019-09-04 06:13:04",
        "first_observation_date": "2019-08-31",
        "last_observation_date": "2019-09-03",
        "data_arc_in_days": 3,
        "observations_used": 34,
        "orbit_uncertainty": "9",
        "minimum_orbit_intersection": ".14766",
        "jupiter_tisserand_invariant": "3.793",
        "epoch_osculation": "2458727.5",
        "eccentricity": ".5045790345681449",
        "semi_major_axis": "1.699689669669748",
        "inclination": "42.18785583032373",
        "ascending_node_longitude": "155.1781043961818",
        "orbital_period": "809.3807650939882",
        "perihelion_distance": ".8420618970823376",
        "perihelion_argument": "81.02489090783402",
        "aphelion_distance": "2.557317442257159",
        "perihelion_time": "2458634.803464961084",
        "mean_anomaly": "41.22997982307453",
        "mean_motion": ".4447844766340543",
        "equinox": "J2000",
        "orbit_class": {
            "orbit_class_type": "APO",
            "orbit_class_description": "Near-Earth asteroid orbits which cross the Earth’s orbit similar to that of 1862 Apollo",
            "orbit_class_range": "a (semi-major axis) > 1.0 AU; q (perihelion) < 1.017 AU"
        }
    },
    "is_sentry_object": false
}